SIRION PATHFINDER-2     
1 43759U 18099B   26181.06462727  .00004711  00000+0  25812-3 0  9990
2 43759  97.4246 229.8162 0007190 249.9523 110.0936 15.14659229414578
CORVUS BC4              
1 43767U 18099K   26181.35331525  .00003739  00000+0  21774-3 0  9994
2 43767  97.4056 223.9482 0006951 324.3515  35.7251 15.12595052414393
M2 PATHFINDER           
1 45727U 20037E   26181.47988063  .00003059  00000+0  22134-3 0  9991
2 45727  97.8140  12.8603 0012730 107.3668 252.8951 15.04732911327490
NETSAT-4                
1 46504U 20068U   26181.47478391  .00016301  00000+0  35583-3 0  9993
2 46504  97.8596 190.7866 0003286 263.1937  96.8936 15.44297823317829
NETSAT-3                
1 46505U 20068V   26181.49118025  .00018026  00000+0  40891-3 0  9995
2 46505  97.8645 189.0043 0002897 292.7411  67.3529 15.43130864317736
NETSAT-1                
1 46506U 20068W   26181.24013854  .00010710  00000+0  31859-3 0  9999
2 46506  97.8739 182.9092 0003348 346.8099  13.3055 15.34932311317307
NETSAT-2                
1 46507U 20068X   26181.49597333  .00023173  00000+0  46720-3 0  9996
2 46507  97.8606 190.7536 0001521 324.3175  35.7971 15.46562129317795
GREENCUBE (IO-117)      
1 53109U 22080E   26179.70139334 -.00000003  00000+0  00000+0 0  9997
2 53109  70.1440 294.2410 0008987 287.1341  72.8335  6.42583249 92806
SITRO-AIS 5 (KATYS)     
1 57176U 23091L   26181.54624431  .00011737  00000+0  40882-3 0  9991
2 57176  97.5056 245.5745 0012119  61.7271 298.5191 15.29756280166384
SITRO-AIS 6 (CHIRKIN)   
1 57192U 23091AC  26181.49064413  .00009616  00000+0  37385-3 0  9998
2 57192  97.5065 244.5664 0012587  65.0233 295.2311 15.26183412166314
SITRO-AIS 8 (ANOKHIN)   
1 57193U 23091AD  26181.53970097  .00014217  00000+0  45455-3 0  9998
2 57193  97.5054 247.2114 0010996  57.8842 302.3466 15.32490014166496
SITRO-AIS 7 (FARTUSHNIY)
1 57194U 23091AE  26181.56211335  .00009365  00000+0  36764-3 0  9996
2 57194  97.5061 244.4562 0012496  65.9550 294.2994 15.25867137166316
SITRO-AIS 10 (BURDAEV)  
1 57199U 23091AK  26181.51452180  .00018979  00000+0  49113-3 0  9994
2 57199  97.5080 252.3789 0006353  37.9350 322.2341 15.39101968166814
SITRO-AIS 9 (SHCHUKIN)  
1 57201U 23091AM  26181.54521803  .00019695  00000+0  51783-3 0  9992
2 57201  97.5078 252.1297 0006601  37.8719 322.2989 15.38604751166805
SITRO-AIS 12 (SMIRENNIY)
1 57204U 23091AQ  26181.53329682  .00019307  00000+0  50294-3 0  9991
2 57204  97.5091 252.5931 0006123  32.2716 327.8903 15.38896523166826
SITRO-AIS 11 (SHEFFER)  
1 57208U 23091AU  26181.54299451  .00019839  00000+0  50948-3 0  9992
2 57208  97.5090 252.8580 0005994  31.9764 328.1844 15.39330081166849
SITRO-AIS 25            
1 59066U 24039R   26181.57473457  .00002710  00000+0  21338-3 0  9993
2 59066  95.3902 244.2922 0142406 281.3459  77.1796 14.93574164126729
SITRO-AIS 26            
1 59067U 24039S   26181.57794177  .00002643  00000+0  20919-3 0  9998
2 59067  95.3903 244.1893 0142727 281.9405  76.5849 14.93368264126713
SITRO-AIS 27            
1 59068U 24039T   26181.54442189  .00002134  00000+0  16798-3 0  9994
2 59068  95.3910 244.4446 0141766 280.6499  77.8789 14.93792207126737
SITRO-AIS 28            
1 59071U 24039U   26181.58855605  .00002851  00000+0  22325-3 0  9992
2 59071  95.3908 244.5226 0141602 280.3103  78.2185 14.93824684126744
GRBBETA                 
1 60237U 24128C   26181.42701108  .00003214  00000+0  22613-3 0  9992
2 60237  61.9879 169.8110 0038958 137.4915 222.9206 15.06717012108269
OOV-CUBE (TUBSAT-30)    
1 60240U 24128F   26181.56269238  .00001824  00000+0  14864-3 0  9998
2 60240  61.9924 178.9308 0042979 136.7327 223.7153 15.02821133108122
ROBUSTA-3A (MEDITERRAN*)
1 60243U 24128J   26181.49606063  .00005601  00000+0  33314-3 0  9992
2 60243  61.9847 161.1742 0039832 130.7455 229.7110 15.11802352108430
LASARSAT                
1 62391U 24247Q   26181.47417201  .00031981  00000+0  62050-3 0  9991
2 62391  44.9721 187.5081 0006709  55.5360 304.6163 15.47133217 85376
CROCUBE                 
1 62394U 24247T   26181.45534166  .00034641  00000+0  62612-3 0  9992
2 62394  44.9690 184.7243 0006588  61.2381 298.9172 15.49133067 85409
FORESAIL-1 PRIME        
1 66778U 25276DS  26181.43718838  .00004337  00000+0  21159-3 0  9993
2 66778  97.4202 254.4659 0003780  75.9591 284.2063 15.18816213 32410
KNACKSAT-2              
1 67683U 98067XZ  26181.35012679  .00038944  00000+0  45592-3 0  9996
2 67683  51.6260 228.2118 0008493 273.6004  86.4018 15.61112165 22338
